{
  "type": "FeatureCollection",
  "features": [
    {
      "type": "Feature",
      "properties": {},
      "geometry": {
        "coordinates": [
          [
            [
              19.633220876681662,
              54.458251996105076
            ],
            [
              20.63798481881085,
              54.35989322629146
            ],
            [
              21.350777939723713,
              54.32894070964045
            ],
            [
              22.09328432839908,
              54.33864524756618
            ],
            [
              22.82544426594268,
              54.37154876537477
            ],
            [
              22.693357244490898,
              54.54683791000991
            ],
            [
              22.743297892165117,
              54.71379701584681
            ],
            [
              22.899139126011875,
              54.7998923599329
            ],
            [
              22.81957222074311,
              54.93726443817778
            ],
            [
              22.594132625398032,
              55.07607102709389
            ],
            [
              22.120074769250692,
              55.09127974735648
            ],
            [
              21.75204098079149,
              55.19930292806302
            ],
            [
              21.410513046797774,
              55.307028463161714
            ],
            [
              20.949610297474777,
              55.308915727701645
            ],
            [
              19.185579631001787,
              55.63406280499058
            ],
            [
              18.75783535285271,
              55.290039040818414
            ],
            [
              19.633220876681662,
              54.458251996105076
            ]
          ]
        ],
        "type": "Polygon"
      }
    }
  ]
}