{
  "type": "FeatureCollection",
  "features": [
    {
      "type": "Feature",
      "properties": {},
      "geometry": {
        "coordinates": [
          [
            [
              25.875306130933183,
              40.47340766283102
            ],
            [
              25.90815341253034,
              37.67062550629413
            ],
            [
              27.536469844943326,
              36.493907845955206
            ],
            [
              32.79700149511805,
              32.88462778960589
            ],
            [
              46.814290254336484,
              30.287434847682384
            ],
            [
              56.664914519672095,
              53.96503330146058
            ],
            [
              73.84048728231286,
              75.73537465403564
            ],
            [
              65.82521999308057,
              78.01749776842107
            ],
            [
              48.157517150342215,
              72.26242764322245
            ],
            [
              46.22020707835475,
              69.97699900818742
            ],
            [
              31.206054020451745,
              70.20787786644823
            ],
            [
              27.331433876476694,
              68.43005627638411
            ],
            [
              29.171878444864717,
              66.11157768732085
            ],
            [
              29.171878444864717,
              62.861518064784974
            ],
            [
              27.137702869277746,
              61.55191668016184
            ],
            [
              27.23456837287725,
              59.894387572358994
            ],
            [
              27.04083736567827,
              58.20089984420582
            ],
            [
              27.428299380076112,
              56.58302410058846
            ],
            [
              26.072182329684523,
              55.71980307146865
            ],
            [
              23.844275746899484,
              54.33187623970204
            ],
            [
              22.488158696507867,
              53.70587795105163
            ],
            [
              22.585024200107313,
              51.590731369837584
            ],
            [
              21.422638156914644,
              49.749287283051245
            ],
            [
              21.65949222543057,
              48.03634370943831
            ],
            [
              24.978980653275073,
              47.607508545798055
            ],
            [
              26.859777655180466,
              48.21543086676559
            ],
            [
              27.89845912148718,
              46.578261526711316
            ],
            [
              27.717342782960657,
              45.74653841770831
            ],
            [
              28.30105211033137,
              45.073040376681206
            ],
            [
              29.965154968403965,
              44.883264410335386
            ],
            [
              29.17357799953436,
              42.44419581427985
            ],
            [
              27.938857452555084,
              42.30674968588684
            ],
            [
              26.20502977788442,
              42.087448966588084
            ],
            [
              26.25584982696145,
              41.72872718015148
            ],
            [
              26.255846881841023,
              41.29177918184993
            ],
            [
              25.875306130933183,
              40.47340766283102
            ]
          ]
        ],
        "type": "Polygon"
      }
    }
  ]
}