{
  "type": "FeatureCollection",
  "features": [
    {
      "type": "Feature",
      "properties": {},
      "geometry": {
        "coordinates": [
          [
            [
              20.377360839595156,
              42.28647205569831
            ],
            [
              20.528563019186777,
              42.21757340873441
            ],
            [
              20.534417357263493,
              42.13138053376372
            ],
            [
              20.59259308360501,
              41.9846155650618
            ],
            [
              20.56930617237819,
              41.85480482250449
            ],
            [
              20.679844759877312,
              41.880870769290794
            ],
            [
              20.75544323475947,
              42.00197324817722
            ],
            [
              20.86003290950069,
              42.079615702673294
            ],
            [
              21.11012553155959,
              42.1960449181843
            ],
            [
              21.185801808962566,
              42.09253646101536
            ],
            [
              21.27306163575784,
              42.109801638028244
            ],
            [
              21.37188910605954,
              42.221898964840705
            ],
            [
              21.592876427150344,
              42.23050062837871
            ],
            [
              21.54631481263084,
              42.34235551493185
            ],
            [
              21.70907484683974,
              42.548311051171396
            ],
            [
              21.79061149582884,
              42.66821211437693
            ],
            [
              21.54628143394936,
              42.73654410686791
            ],
            [
              21.371841566394806,
              42.770722990400316
            ],
            [
              21.447433718120323,
              42.85603504026969
            ],
            [
              21.302039120641467,
              42.87733318315276
            ],
            [
              21.1857087987334,
              42.97947767084935
            ],
            [
              21.156621856170062,
              43.038981514109935
            ],
            [
              21.086856823763355,
              43.12820069106607
            ],
            [
              20.894945235790743,
              43.14506763668459
            ],
            [
              20.848423652679116,
              43.19589508687665
            ],
            [
              20.80771859567264,
              43.267810964231415
            ],
            [
              20.67400462886559,
              43.233973917671506
            ],
            [
              20.610050341708245,
              43.19586650466181
            ],
            [
              20.67980827895724,
              43.08574254881785
            ],
            [
              20.604212909316914,
              43.02201337243889
            ],
            [
              20.48212738809889,
              42.95811025778502
            ],
            [
              20.540275197701305,
              42.894229394452566
            ],
            [
              20.406663617144147,
              42.83431246450036
            ],
            [
              20.273010068781645,
              42.82148614472342
            ],
            [
              20.24970649462233,
              42.77465536275909
            ],
            [
              20.179898343270168,
              42.74484971928496
            ],
            [
              20.075350283195263,
              42.78743513980885
            ],
            [
              20.03478705831992,
              42.731848781556806
            ],
            [
              20.08125189640836,
              42.65071338558292
            ],
            [
              20.110326180869095,
              42.54803251806729
            ],
            [
              20.185743689487623,
              42.436697863036954
            ],
            [
              20.226177755650298,
              42.32086927244961
            ],
            [
              20.377360839595156,
              42.28647205569831
            ]
          ]
        ],
        "type": "Polygon"
      }
    }
  ]
}